IRIDIUM 36              
1 24967U 97056C   24345.50016961  .00001043  00000+0  34357-3 0  9993
2 24967  86.3970 252.2139 0001979  80.6700 279.4721 14.37285321425115
IRIDIUM 39              
1 25042U 97069D   24345.39432304  .00001888  00000+0  49504-3 0  9999
2 25042  86.3899 292.0815 0016471 211.3467 148.6757 14.48706870421884
IRIDIUM 38              
1 25043U 97069E   24345.17141389  .00001400  00000+0  45872-3 0  9990
2 25043  86.3943 312.7016 0003026  48.0844 312.0611 14.37770846419058
IRIDIUM 42              
1 25077U 97077A   24344.87740535  .00001286  00000+0  43597-3 0  9994
2 25077  86.3947 318.7628 0002615  72.2701 287.8781 14.36031552414020
IRIDIUM 44              
1 25078U 97077B   24345.41097452  .00001292  00000+0  40514-3 0  9992
2 25078  86.3939 300.9570 0000959  35.4181 324.7081 14.39901743416569
IRIDIUM 45              
1 25104U 97082A   24345.49866528  .00023841  00000+0  10810-2 0  9993
2 25104  86.3629 138.8479 0136908 314.4381  44.5719 15.12604994423672
IRIDIUM 24              
1 25105U 97082B   24345.06991949  .00001292  00000+0  39007-3 0  9999
2 25105  86.3922 160.4639 0011088 353.2763   6.8287 14.41722970416213
IRIDIUM 51              
1 25262U 98018A   24344.72762989  .00040236  00000+0  13849-2 0  9991
2 25262  86.3910 148.4506 0115890 250.4521 108.4180 15.23600909418029
